[{"OBJECT_NAME":"STARLINK-5543","OBJECT_ID":"2023-058AA","EPOCH":"2026-03-09T23:29:32.925120","MEAN_MOTION":15.01259134,"ECCENTRICITY":8.577e-5,"INCLINATION":97.6032,"RA_OF_ASC_NODE":70.481,"ARG_OF_PERICENTER":150.622,"MEAN_ANOMALY":209.5053,"EPHEMERIS_TYPE":0,"CLASSIFICATION_TYPE":"U","NORAD_CAT_ID":56341,"ELEMENT_SET_NO":999,"REV_AT_EPOCH":15816,"BSTAR":-2.3742327e-5,"MEAN_MOTION_DOT":-3.63e-6,"MEAN_MOTION_DDOT":0},{"OBJECT_NAME":"SL-14 R\/B","OBJECT_ID":"1986-006B","EPOCH":"2026-03-09T22:10:50.144736","MEAN_MOTION":14.86815194,"ECCENTRICITY":0.00750516,"INCLINATION":82.5234,"RA_OF_ASC_NODE":259.5165,"ARG_OF_PERICENTER":271.9927,"MEAN_ANOMALY":87.2696,"EPHEMERIS_TYPE":0,"CLASSIFICATION_TYPE":"U","NORAD_CAT_ID":16496,"ELEMENT_SET_NO":999,"REV_AT_EPOCH":14924,"BSTAR":8.3491519e-5,"MEAN_MOTION_DOT":8.08e-6,"MEAN_MOTION_DDOT":0}]
